start=new Date('2021-09-15T00:00:00.000Z').valueOf();
sats=[{"SITE":"AFETR","MEAN_ANOMALY":"289.6291","COUNTRY_CODE":"US","OBJECT_ID":"2021-038A","MEAN_MOTION_DOT":"-0.00000352","GP_ID":"184724648","REV_AT_EPOCH":"2029","DECAY_DATE":null,"RA_OF_ASC_NODE":"150.3926","MEAN_MOTION":"15.06384768","TLE_LINE1":"1 48353U 21038A   21257.69131772 -.00000352  00000-0 -46884-5 0  9997","BSTAR":"-0.00000468840000","APOAPSIS":"548.832","TIME_SYSTEM":"UTC","EPHEMERIS_TYPE":"0","ECCENTRICITY":"0.00022700","SEMIMAJOR_AXIS":"6925.395","EPOCH":"2021-09-14T16:35:29.851008","NORAD_CAT_ID":"48353","PERIAPSIS":"545.688","CENTER_NAME":"EARTH","MEAN_MOTION_DDOT":"0.0000000000000","REF_FRAME":"TEME","ARG_OF_PERICENTER":"70.4943","RCS_SIZE":"LARGE","TLE_LINE2":"2 48353  53.0567 150.3926 0002270  70.4943 289.6291 15.06384768 20293","CLASSIFICATION_TYPE":"U","OBJECT_NAME":"STARLINK-2613","ELEMENT_SET_NO":"999","INCLINATION":"53.0567","FILE":"3115650","LAUNCH_DATE":"2021-05-04","MEAN_ELEMENT_THEORY":"SGP4","PERIOD":"95.593","OBJECT_TYPE":"PAYLOAD"},{"MEAN_MOTION_DDOT":"0.0000000000000","REF_FRAME":"TEME","CENTER_NAME":"EARTH","PERIAPSIS":"545.857","EPOCH":"2021-09-14T21:16:48.014976","NORAD_CAT_ID":"48354","TLE_LINE2":"2 48354  53.0549 149.5043 0001998  64.0600 296.0595 15.06391278 20326","RCS_SIZE":"LARGE","ARG_OF_PERICENTER":"64.0600","FILE":"3115650","ELEMENT_SET_NO":"999","INCLINATION":"53.0549","CLASSIFICATION_TYPE":"U","OBJECT_NAME":"STARLINK-2674","PERIOD":"95.593","OBJECT_TYPE":"PAYLOAD","MEAN_ELEMENT_THEORY":"SGP4","LAUNCH_DATE":"2021-05-04","MEAN_ANOMALY":"296.0595","COUNTRY_CODE":"US","OBJECT_ID":"2021-038B","SITE":"AFETR","GP_ID":"184724742","MEAN_MOTION_DOT":"-0.00000232","MEAN_MOTION":"15.06391278","DECAY_DATE":null,"RA_OF_ASC_NODE":"149.5043","REV_AT_EPOCH":"2032","SEMIMAJOR_AXIS":"6925.375","EPHEMERIS_TYPE":"0","ECCENTRICITY":"0.00019980","TLE_LINE1":"1 48354U 21038B   21257.88666684 -.00000232  00000-0  33183-5 0  9998","APOAPSIS":"548.624","TIME_SYSTEM":"UTC","BSTAR":"0.00000331830000"},{"EPHEMERIS_TYPE":"0","ECCENTRICITY":"0.00022010","SEMIMAJOR_AXIS":"6925.368","TLE_LINE1":"1 48355U 21038C   21257.68393191  .00000301  00000-0  39107-4 0  9994","APOAPSIS":"548.758","TIME_SYSTEM":"UTC","BSTAR":"0.00003910700000","RA_OF_ASC_NODE":"150.4197","DECAY_DATE":null,"MEAN_MOTION":"15.06393576","REV_AT_EPOCH":"2029","GP_ID":"184724555","MEAN_MOTION_DOT":"0.00000301","COUNTRY_CODE":"US","MEAN_ANOMALY":"305.9424","OBJECT_ID":"2021-038C","SITE":"AFETR","MEAN_ELEMENT_THEORY":"SGP4","PERIOD":"95.593","OBJECT_TYPE":"PAYLOAD","LAUNCH_DATE":"2021-05-04","ELEMENT_SET_NO":"999","INCLINATION":"53.0557","FILE":"3115650","CLASSIFICATION_TYPE":"U","OBJECT_NAME":"STARLINK-2635","TLE_LINE2":"2 48355  53.0557 150.4197 0002201  54.1770 305.9424 15.06393576 20293","RCS_SIZE":"LARGE","ARG_OF_PERICENTER":"54.1770","CENTER_NAME":"EARTH","MEAN_MOTION_DDOT":"0.0000000000000","REF_FRAME":"TEME","EPOCH":"2021-09-14T16:24:51.717024","NORAD_CAT_ID":"48355","PERIAPSIS":"545.709"},{"SEMIMAJOR_AXIS":"6937.878","EPHEMERIS_TYPE":"0","ECCENTRICITY":"0.00023470","APOAPSIS":"561.371","TLE_LINE1":"1 48356U 21038D   21257.14464658 -.00000708  00000-0 -32733-4 0  9994","TIME_SYSTEM":"UTC","BSTAR":"-0.00003273300000","MEAN_MOTION":"15.02321280","DECAY_DATE":null,"RA_OF_ASC_NODE":"152.6765","REV_AT_EPOCH":"2021","GP_ID":"184698518","MEAN_MOTION_DOT":"-0.00000708","COUNTRY_CODE":"US","MEAN_ANOMALY":"293.8986","OBJECT_ID":"2021-038D","SITE":"AFETR","OBJECT_TYPE":"PAYLOAD","PERIOD":"95.852","MEAN_ELEMENT_THEORY":"SGP4","LAUNCH_DATE":"2021-05-04","FILE":"3115492","INCLINATION":"53.0555","ELEMENT_SET_NO":"999","OBJECT_NAME":"STARLINK-2637","CLASSIFICATION_TYPE":"U","RCS_SIZE":"LARGE","TLE_LINE2":"2 48356  53.0555 152.6765 0002347  66.2247 293.8986 15.02321280 20210","ARG_OF_PERICENTER":"66.2247","REF_FRAME":"TEME","MEAN_MOTION_DDOT":"0.0000000000000","CENTER_NAME":"EARTH","PERIAPSIS":"558.114","NORAD_CAT_ID":"48356","EPOCH":"2021-09-14T03:28:17.464512"},{"SITE":"AFETR","COUNTRY_CODE":"US","MEAN_ANOMALY":"299.7001","OBJECT_ID":"2021-038E","MEAN_MOTION_DOT":"-0.00000281","GP_ID":"184697687","REV_AT_EPOCH":"2021","DECAY_DATE":null,"RA_OF_ASC_NODE":"152.8301","MEAN_MOTION":"15.06387786","TLE_LINE1":"1 48357U 21038E   21257.14579362 -.00000281  00000-0  65279-7 0  9993","TIME_SYSTEM":"UTC","APOAPSIS":"548.805","BSTAR":"0.00000006527900","EPHEMERIS_TYPE":"0","ECCENTRICITY":"0.00022440","SEMIMAJOR_AXIS":"6925.386","EPOCH":"2021-09-14T03:29:56.568768","NORAD_CAT_ID":"48357","PERIAPSIS":"545.697","CENTER_NAME":"EARTH","MEAN_MOTION_DDOT":"0.0000000000000","REF_FRAME":"TEME","ARG_OF_PERICENTER":"60.4212","TLE_LINE2":"2 48357  53.0550 152.8301 0002244  60.4212 299.7001 15.06387786 20218","RCS_SIZE":"LARGE","CLASSIFICATION_TYPE":"U","OBJECT_NAME":"STARLINK-2636","ELEMENT_SET_NO":"999","INCLINATION":"53.0550","FILE":"3115492","LAUNCH_DATE":"2021-05-04","MEAN_ELEMENT_THEORY":"SGP4","PERIOD":"95.593","OBJECT_TYPE":"PAYLOAD"},{"FILE":"3115650","ELEMENT_SET_NO":"999","INCLINATION":"53.0518","CLASSIFICATION_TYPE":"U","OBJECT_NAME":"STARLINK-2624","PERIOD":"95.592","OBJECT_TYPE":"PAYLOAD","MEAN_ELEMENT_THEORY":"SGP4","LAUNCH_DATE":"2021-05-04","MEAN_MOTION_DDOT":"0.0000000000000","REF_FRAME":"TEME","CENTER_NAME":"EARTH","PERIAPSIS":"545.847","EPOCH":"2021-09-14T16:08:56.187456","NORAD_CAT_ID":"48358","TLE_LINE2":"2 48358  53.0518 150.4869 0001995  63.9977 296.1217 15.06395086 20283","RCS_SIZE":"LARGE","ARG_OF_PERICENTER":"63.9977","MEAN_MOTION":"15.06395086","RA_OF_ASC_NODE":"150.4869","DECAY_DATE":null,"REV_AT_EPOCH":"2028","SEMIMAJOR_AXIS":"6925.364","EPHEMERIS_TYPE":"0","ECCENTRICITY":"0.00019950","APOAPSIS":"548.610","TLE_LINE1":"1 48358U 21038F   21257.67287254  .00001376  00000-0  11128-3 0  9993","BSTAR":"0.00011128000000","TIME_SYSTEM":"UTC","OBJECT_ID":"2021-038F","COUNTRY_CODE":"US","MEAN_ANOMALY":"296.1217","SITE":"AFETR","GP_ID":"184725058","MEAN_MOTION_DOT":"0.00001376"},{"TLE_LINE2":"2 48359  53.0533 152.8620 0001979  68.8257 291.2943 15.06394441 20207","RCS_SIZE":"LARGE","ARG_OF_PERICENTER":"68.8257","CENTER_NAME":"EARTH","MEAN_MOTION_DDOT":"0.0000000000000","REF_FRAME":"TEME","EPOCH":"2021-09-14T03:19:18.923808","NORAD_CAT_ID":"48359","PERIAPSIS":"545.860","MEAN_ELEMENT_THEORY":"SGP4","PERIOD":"95.592","OBJECT_TYPE":"PAYLOAD","LAUNCH_DATE":"2021-05-04","ELEMENT_SET_NO":"999","INCLINATION":"53.0533","FILE":"3115492","CLASSIFICATION_TYPE":"U","OBJECT_NAME":"STARLINK-2628","GP_ID":"184698494","MEAN_MOTION_DOT":"-0.00000457","COUNTRY_CODE":"US","MEAN_ANOMALY":"291.2943","OBJECT_ID":"2021-038G","SITE":"AFETR","ECCENTRICITY":"0.00019790","EPHEMERIS_TYPE":"0","SEMIMAJOR_AXIS":"6925.366","BSTAR":"-0.00001177000000","TLE_LINE1":"1 48359U 21038G   21257.13841347 -.00000457  00000-0 -11770-4 0  9999","APOAPSIS":"548.601","TIME_SYSTEM":"UTC","RA_OF_ASC_NODE":"152.8620","DECAY_DATE":null,"MEAN_MOTION":"15.06394441","REV_AT_EPOCH":"2020"},{"ARG_OF_PERICENTER":"58.0282","RCS_SIZE":"LARGE","TLE_LINE2":"2 48360  53.0546 152.8737 0001930  58.0282 302.0894 15.06390513 20200","PERIAPSIS":"545.906","NORAD_CAT_ID":"48360","EPOCH":"2021-09-14T03:14:00.974400","REF_FRAME":"TEME","MEAN_MOTION_DDOT":"0.0000000000000","CENTER_NAME":"EARTH","LAUNCH_DATE":"2021-05-04","OBJECT_TYPE":"PAYLOAD","PERIOD":"95.593","MEAN_ELEMENT_THEORY":"SGP4","OBJECT_NAME":"STARLINK-2622","CLASSIFICATION_TYPE":"U","FILE":"3115492","INCLINATION":"53.0546","ELEMENT_SET_NO":"999","MEAN_MOTION_DOT":"-0.00000134","GP_ID":"184698196","SITE":"AFETR","COUNTRY_CODE":"US","OBJECT_ID":"2021-038H","MEAN_ANOMALY":"302.0894","APOAPSIS":"548.579","TLE_LINE1":"1 48360U 21038H   21257.13473350 -.00000134  00000-0  99066-5 0  9992","BSTAR":"0.00000990660000","TIME_SYSTEM":"UTC","SEMIMAJOR_AXIS":"6925.378","EPHEMERIS_TYPE":"0","ECCENTRICITY":"0.00019300","REV_AT_EPOCH":"2020","MEAN_MOTION":"15.06390513","RA_OF_ASC_NODE":"152.8737","DECAY_DATE":null},{"MEAN_ELEMENT_THEORY":"SGP4","PERIOD":"95.593","OBJECT_TYPE":"PAYLOAD","LAUNCH_DATE":"2021-05-04","ELEMENT_SET_NO":"999","INCLINATION":"53.0545","FILE":"3115492","CLASSIFICATION_TYPE":"U","OBJECT_NAME":"STARLINK-2591","RCS_SIZE":"LARGE","TLE_LINE2":"2 48361  53.0545 152.9771 0001664  46.1845 313.9281 15.06394183 20204","ARG_OF_PERICENTER":"46.1845","CENTER_NAME":"EARTH","MEAN_MOTION_DDOT":"0.0000000000000","REF_FRAME":"TEME","EPOCH":"2021-09-14T03:08:41.827488","NORAD_CAT_ID":"48361","PERIAPSIS":"546.079","EPHEMERIS_TYPE":"0","ECCENTRICITY":"0.00016640","SEMIMAJOR_AXIS":"6925.366","APOAPSIS":"548.384","TLE_LINE1":"1 48361U 21038J   21257.13103967  .00000896  00000-0  79034-4 0  9993","TIME_SYSTEM":"UTC","BSTAR":"0.00007903400000","DECAY_DATE":null,"RA_OF_ASC_NODE":"152.9771","MEAN_MOTION":"15.06394183","REV_AT_EPOCH":"2020","GP_ID":"184697188","MEAN_MOTION_DOT":"0.00000896","MEAN_ANOMALY":"313.9281","COUNTRY_CODE":"US","OBJECT_ID":"2021-038J","SITE":"AFETR"},{"REV_AT_EPOCH":"2031","RA_OF_ASC_NODE":"149.4490","DECAY_DATE":null,"MEAN_MOTION":"15.04767517","APOAPSIS":"553.720","TLE_LINE1":"1 48362U 21038K   21257.76889771 -.00000589  00000-0 -21884-4 0  9998","TIME_SYSTEM":"UTC","BSTAR":"-0.00002188400000","EPHEMERIS_TYPE":"0","ECCENTRICITY":"0.00021630","SEMIMAJOR_AXIS":"6930.356","SITE":"AFETR","COUNTRY_CODE":"US","MEAN_ANOMALY":"300.3759","OBJECT_ID":"2021-038K","MEAN_MOTION_DOT":"-0.00000589","GP_ID":"184724743","CLASSIFICATION_TYPE":"U","OBJECT_NAME":"STARLINK-2578","ELEMENT_SET_NO":"999","INCLINATION":"53.0541","FILE":"3115650","LAUNCH_DATE":"2021-05-04","MEAN_ELEMENT_THEORY":"SGP4","PERIOD":"95.696","OBJECT_TYPE":"PAYLOAD","EPOCH":"2021-09-14T18:27:12.762144","NORAD_CAT_ID":"48362","PERIAPSIS":"550.722","CENTER_NAME":"EARTH","MEAN_MOTION_DDOT":"0.0000000000000","REF_FRAME":"TEME","ARG_OF_PERICENTER":"59.7443","TLE_LINE2":"2 48362  53.0541 149.4490 0002163  59.7443 300.3759 15.04767517 20314","RCS_SIZE":"LARGE"}];
